[{"OBJECT_NAME":"STARLINK-35772","OBJECT_ID":"2025-288T","EPOCH":"2026-03-09T22:00:01.999584","MEAN_MOTION":15.28420626,"ECCENTRICITY":0.0001878,"INCLINATION":43.0027,"RA_OF_ASC_NODE":22.309,"ARG_OF_PERICENTER":249.4274,"MEAN_ANOMALY":17.4897,"EPHEMERIS_TYPE":0,"CLASSIFICATION_TYPE":"U","NORAD_CAT_ID":66976,"ELEMENT_SET_NO":999,"REV_AT_EPOCH":585,"BSTAR":0.0010599511,"MEAN_MOTION_DOT":0.00029784,"MEAN_MOTION_DDOT":0},{"OBJECT_NAME":"FENGYUN 1C DEB","OBJECT_ID":"1999-025DNE","EPOCH":"2026-03-03T04:32:20.578848","MEAN_MOTION":15.05751159,"ECCENTRICITY":0.01321557,"INCLINATION":98.9662,"RA_OF_ASC_NODE":53.9178,"ARG_OF_PERICENTER":282.0758,"MEAN_ANOMALY":76.5683,"EPHEMERIS_TYPE":0,"CLASSIFICATION_TYPE":"U","NORAD_CAT_ID":35174,"ELEMENT_SET_NO":999,"REV_AT_EPOCH":91373,"BSTAR":0.0030573957,"MEAN_MOTION_DOT":0.00054187,"MEAN_MOTION_DDOT":0}]
